ALOS (DAICHI)           
1 28931U 06002A   26111.86592882  .00000828  00000+0  14667-3 0  9994
2 28931  98.1282  67.6288 0001832 107.9800 252.1605 14.69929675 79826
H-2A R/B                
1 28932U 06002B   26111.68441794  .00007285  00000+0  35637-3 0  9994
2 28932  98.2502 262.4586 0052607  95.5334 265.1900 15.17319918100957
RESURS-DK 1             
1 29228U 06021A   26111.77680679  .00001513  00000+0  91716-4 0  9990
2 29228  69.9297 125.5493 0002926 348.3924  11.7174 15.12967535 94040
CZ-4B R/B               
1 29507U 06046C   26111.48080461  .00003880  00000+0  19514-3 0  9992
2 29507  97.5509 156.2670 0034537 118.2041 242.2688 15.17313585 66537
CZ-2C R/B               
1 31114U 07010B   26111.84143370  .00000087  00000+0  58854-4 0  9997
2 31114  98.4030 222.9674 0059335 167.6705 192.5940 14.20261120985848
COSMO-SKYMED 1          
1 31598U 07023A   26111.85293406  .00001887  00000+0  16997-3 0  9994
2 31598  97.8869 303.2406 0001085  97.1967 262.9377 14.96818434 21362
COSMOS 2428             
1 31792U 07029A   26111.36567262 -.00000197  00000+0 -80169-4 0  9994
2 31792  70.9392 113.7691 0009280 230.6639 129.3660 14.12946561970125
SL-16 R/B               
1 31793U 07029B   26111.64217435  .00000183  00000+0  11956-3 0  9990
2 31793  70.9736  82.0924 0002576 269.0904 263.9329 14.14842598971447
KORONAS-FOTON           
1 33504U 09003A   26111.79973346  .00010309  00000+0  22148-3 0  9998
2 33504  82.4309 231.0170 0010132   6.3315 353.8059 15.44465733952395
CZ-2C R/B               
1 37731U 11030B   26111.77644068  .00000616  00000+0  83957-4 0  9997
2 37731  97.8612  68.2028 0051616 208.7224 213.7652 14.81347337796476
H-2A R/B                
1 38341U 12025E   26111.88965850  .00001241  00000+0  11639-3 0  9999
2 38341  98.4796  82.4246 0044311 169.5693 190.6455 14.95424939754671
SHIJIAN-16 (SJ-16)      
1 39358U 13057A   26111.86692060  .00001278  00000+0  12715-3 0  9998
2 39358  74.9703 103.3394 0016035   1.8578 358.2667 14.92468269677948
SL-4 R/B                
1 39679U 14021B   26111.32962554  .00011518  00000+0  24823-3 0  9996
2 39679  51.6057 129.0257 0092935 258.9555 100.0966 15.40576696662840
ALOS-2                  
1 39766U 14029A   26111.86864674 -.00000368  00000+0 -42353-4 0  9996
2 39766  97.9202 209.8381 0001832  88.1428 271.9994 14.79462921643254
YAOGAN-29               
1 41038U 15069A   26111.84103584  .00000589  00000+0  79059-4 0  9996
2 41038  98.0075 140.3741 0001548 147.3010 212.8299 14.83038649562272
ASTRO-H (HITOMI)        
1 41337U 16012A   26111.59696814  .00002128  00000+0  12119-3 0  9996
2 41337  30.9988  79.5941 0009452  42.8515 317.2859 15.10251208558724
HXMT (HUIYAN)           
1 42758U 17034A   26111.75212791  .00002594  00000+0  13568-3 0  9991
2 42758  43.0135 137.1597 0030861 149.4136 210.8519 15.17965060489088
