[{"OBJECT_NAME":"ALOS (DAICHI)","OBJECT_ID":"2006-002A","EPOCH":"2026-04-21T20:46:56.250048","MEAN_MOTION":14.69929675,"ECCENTRICITY":0.0001832,"INCLINATION":98.1282,"RA_OF_ASC_NODE":67.6288,"ARG_OF_PERICENTER":107.98,"MEAN_ANOMALY":252.1605,"EPHEMERIS_TYPE":0,"CLASSIFICATION_TYPE":"U","NORAD_CAT_ID":28931,"ELEMENT_SET_NO":999,"REV_AT_EPOCH":7982,"BSTAR":0.00014667,"MEAN_MOTION_DOT":8.28e-6,"MEAN_MOTION_DDOT":0},{"OBJECT_NAME":"H-2A R/B","OBJECT_ID":"2006-002B","EPOCH":"2026-04-21T16:25:33.710016","MEAN_MOTION":15.17319918,"ECCENTRICITY":0.0052607,"INCLINATION":98.2502,"RA_OF_ASC_NODE":262.4586,"ARG_OF_PERICENTER":95.5334,"MEAN_ANOMALY":265.19,"EPHEMERIS_TYPE":0,"CLASSIFICATION_TYPE":"U","NORAD_CAT_ID":28932,"ELEMENT_SET_NO":999,"REV_AT_EPOCH":10095,"BSTAR":0.00035637,"MEAN_MOTION_DOT":7.285e-5,"MEAN_MOTION_DDOT":0},{"OBJECT_NAME":"RESURS-DK 1","OBJECT_ID":"2006-021A","EPOCH":"2026-04-21T18:38:36.106656","MEAN_MOTION":15.12967535,"ECCENTRICITY":0.0002926,"INCLINATION":69.9297,"RA_OF_ASC_NODE":125.5493,"ARG_OF_PERICENTER":348.3924,"MEAN_ANOMALY":11.7174,"EPHEMERIS_TYPE":0,"CLASSIFICATION_TYPE":"U","NORAD_CAT_ID":29228,"ELEMENT_SET_NO":999,"REV_AT_EPOCH":9404,"BSTAR":9.1716e-5,"MEAN_MOTION_DOT":1.513e-5,"MEAN_MOTION_DDOT":0},{"OBJECT_NAME":"CZ-4B R/B","OBJECT_ID":"2006-046C","EPOCH":"2026-04-21T11:32:21.518304","MEAN_MOTION":15.17313585,"ECCENTRICITY":0.00345376,"INCLINATION":97.5509,"RA_OF_ASC_NODE":156.267,"ARG_OF_PERICENTER":118.2041,"MEAN_ANOMALY":242.2688,"EPHEMERIS_TYPE":0,"CLASSIFICATION_TYPE":"U","NORAD_CAT_ID":29507,"ELEMENT_SET_NO":999,"REV_AT_EPOCH":6653,"BSTAR":0.00019514272,"MEAN_MOTION_DOT":3.88e-5,"MEAN_MOTION_DDOT":0},{"OBJECT_NAME":"CZ-2C R/B","OBJECT_ID":"2007-010B","EPOCH":"2026-04-21T20:11:39.871680","MEAN_MOTION":14.2026112,"ECCENTRICITY":0.0059335,"INCLINATION":98.403,"RA_OF_ASC_NODE":222.9674,"ARG_OF_PERICENTER":167.6705,"MEAN_ANOMALY":192.594,"EPHEMERIS_TYPE":0,"CLASSIFICATION_TYPE":"U","NORAD_CAT_ID":31114,"ELEMENT_SET_NO":999,"REV_AT_EPOCH":98584,"BSTAR":5.8854e-5,"MEAN_MOTION_DOT":8.7e-7,"MEAN_MOTION_DDOT":0},{"OBJECT_NAME":"COSMO-SKYMED 1","OBJECT_ID":"2007-023A","EPOCH":"2026-04-21T20:28:13.502784","MEAN_MOTION":14.96818434,"ECCENTRICITY":0.0001085,"INCLINATION":97.8869,"RA_OF_ASC_NODE":303.2406,"ARG_OF_PERICENTER":97.1967,"MEAN_ANOMALY":262.9377,"EPHEMERIS_TYPE":0,"CLASSIFICATION_TYPE":"U","NORAD_CAT_ID":31598,"ELEMENT_SET_NO":999,"REV_AT_EPOCH":2136,"BSTAR":0.00016997,"MEAN_MOTION_DOT":1.887e-5,"MEAN_MOTION_DDOT":0},{"OBJECT_NAME":"COSMOS 2428","OBJECT_ID":"2007-029A","EPOCH":"2026-04-21T08:46:34.114368","MEAN_MOTION":14.12946561,"ECCENTRICITY":0.00092804,"INCLINATION":70.9392,"RA_OF_ASC_NODE":113.7691,"ARG_OF_PERICENTER":230.6639,"MEAN_ANOMALY":129.366,"EPHEMERIS_TYPE":0,"CLASSIFICATION_TYPE":"U","NORAD_CAT_ID":31792,"ELEMENT_SET_NO":999,"REV_AT_EPOCH":97012,"BSTAR":-8.0169126e-5,"MEAN_MOTION_DOT":-1.97e-6,"MEAN_MOTION_DDOT":0},{"OBJECT_NAME":"SL-16 R/B","OBJECT_ID":"2007-029B","EPOCH":"2026-04-21T15:24:43.863840","MEAN_MOTION":14.14842598,"ECCENTRICITY":0.0002576,"INCLINATION":70.9736,"RA_OF_ASC_NODE":82.0924,"ARG_OF_PERICENTER":269.0904,"MEAN_ANOMALY":263.9329,"EPHEMERIS_TYPE":0,"CLASSIFICATION_TYPE":"U","NORAD_CAT_ID":31793,"ELEMENT_SET_NO":999,"REV_AT_EPOCH":97144,"BSTAR":0.00011956,"MEAN_MOTION_DOT":1.83e-6,"MEAN_MOTION_DDOT":0},{"OBJECT_NAME":"KORONAS-FOTON","OBJECT_ID":"2009-003A","EPOCH":"2026-04-21T19:11:36.970944","MEAN_MOTION":15.44465733,"ECCENTRICITY":0.0010132,"INCLINATION":82.4309,"RA_OF_ASC_NODE":231.017,"ARG_OF_PERICENTER":6.3315,"MEAN_ANOMALY":353.8059,"EPHEMERIS_TYPE":0,"CLASSIFICATION_TYPE":"U","NORAD_CAT_ID":33504,"ELEMENT_SET_NO":999,"REV_AT_EPOCH":95239,"BSTAR":0.00022148,"MEAN_MOTION_DOT":0.00010309,"MEAN_MOTION_DDOT":0},{"OBJECT_NAME":"CZ-2C R/B","OBJECT_ID":"2011-030B","EPOCH":"2026-04-21T18:38:04.474752","MEAN_MOTION":14.81347337,"ECCENTRICITY":0.0051616,"INCLINATION":97.8612,"RA_OF_ASC_NODE":68.2028,"ARG_OF_PERICENTER":208.7224,"MEAN_ANOMALY":213.7652,"EPHEMERIS_TYPE":0,"CLASSIFICATION_TYPE":"U","NORAD_CAT_ID":37731,"ELEMENT_SET_NO":999,"REV_AT_EPOCH":79647,"BSTAR":8.3957e-5,"MEAN_MOTION_DOT":6.16e-6,"MEAN_MOTION_DDOT":0},{"OBJECT_NAME":"H-2A R/B","OBJECT_ID":"2012-025E","EPOCH":"2026-04-21T21:21:06.494400","MEAN_MOTION":14.95424939,"ECCENTRICITY":0.0044311,"INCLINATION":98.4796,"RA_OF_ASC_NODE":82.4246,"ARG_OF_PERICENTER":169.5693,"MEAN_ANOMALY":190.6455,"EPHEMERIS_TYPE":0,"CLASSIFICATION_TYPE":"U","NORAD_CAT_ID":38341,"ELEMENT_SET_NO":999,"REV_AT_EPOCH":75467,"BSTAR":0.00011639,"MEAN_MOTION_DOT":1.241e-5,"MEAN_MOTION_DDOT":0},{"OBJECT_NAME":"SHIJIAN-16 (SJ-16)","OBJECT_ID":"2013-057A","EPOCH":"2026-04-21T20:48:21.939840","MEAN_MOTION":14.92468269,"ECCENTRICITY":0.0016035,"INCLINATION":74.9703,"RA_OF_ASC_NODE":103.3394,"ARG_OF_PERICENTER":1.8578,"MEAN_ANOMALY":358.2667,"EPHEMERIS_TYPE":0,"CLASSIFICATION_TYPE":"U","NORAD_CAT_ID":39358,"ELEMENT_SET_NO":999,"REV_AT_EPOCH":67794,"BSTAR":0.00012715,"MEAN_MOTION_DOT":1.278e-5,"MEAN_MOTION_DDOT":0},{"OBJECT_NAME":"SL-4 R/B","OBJECT_ID":"2014-021B","EPOCH":"2026-04-21T07:54:39.646656","MEAN_MOTION":15.40576696,"ECCENTRICITY":0.00929354,"INCLINATION":51.6057,"RA_OF_ASC_NODE":129.0257,"ARG_OF_PERICENTER":258.9555,"MEAN_ANOMALY":100.0966,"EPHEMERIS_TYPE":0,"CLASSIFICATION_TYPE":"U","NORAD_CAT_ID":39679,"ELEMENT_SET_NO":999,"REV_AT_EPOCH":66284,"BSTAR":0.00024823085,"MEAN_MOTION_DOT":0.00011518,"MEAN_MOTION_DDOT":0},{"OBJECT_NAME":"ALOS-2","OBJECT_ID":"2014-029A","EPOCH":"2026-04-21T20:50:51.078336","MEAN_MOTION":14.79462921,"ECCENTRICITY":0.0001832,"INCLINATION":97.9202,"RA_OF_ASC_NODE":209.8381,"ARG_OF_PERICENTER":88.1428,"MEAN_ANOMALY":271.9994,"EPHEMERIS_TYPE":0,"CLASSIFICATION_TYPE":"U","NORAD_CAT_ID":39766,"ELEMENT_SET_NO":999,"REV_AT_EPOCH":64325,"BSTAR":-4.2353e-5,"MEAN_MOTION_DOT":-3.68e-6,"MEAN_MOTION_DDOT":0},{"OBJECT_NAME":"YAOGAN-29","OBJECT_ID":"2015-069A","EPOCH":"2026-04-21T20:11:05.496576","MEAN_MOTION":14.83038649,"ECCENTRICITY":0.0001548,"INCLINATION":98.0075,"RA_OF_ASC_NODE":140.3741,"ARG_OF_PERICENTER":147.301,"MEAN_ANOMALY":212.8299,"EPHEMERIS_TYPE":0,"CLASSIFICATION_TYPE":"U","NORAD_CAT_ID":41038,"ELEMENT_SET_NO":999,"REV_AT_EPOCH":56227,"BSTAR":7.9059e-5,"MEAN_MOTION_DOT":5.89e-6,"MEAN_MOTION_DDOT":0},{"OBJECT_NAME":"ASTRO-H (HITOMI)","OBJECT_ID":"2016-012A","EPOCH":"2026-04-21T14:19:38.047296","MEAN_MOTION":15.10251208,"ECCENTRICITY":0.0009452,"INCLINATION":30.9988,"RA_OF_ASC_NODE":79.5941,"ARG_OF_PERICENTER":42.8515,"MEAN_ANOMALY":317.2859,"EPHEMERIS_TYPE":0,"CLASSIFICATION_TYPE":"U","NORAD_CAT_ID":41337,"ELEMENT_SET_NO":999,"REV_AT_EPOCH":55872,"BSTAR":0.00012119,"MEAN_MOTION_DOT":2.128e-5,"MEAN_MOTION_DDOT":0},{"OBJECT_NAME":"HXMT (HUIYAN)","OBJECT_ID":"2017-034A","EPOCH":"2026-04-21T18:03:03.851424","MEAN_MOTION":15.1796506,"ECCENTRICITY":0.0030861,"INCLINATION":43.0135,"RA_OF_ASC_NODE":137.1597,"ARG_OF_PERICENTER":149.4136,"MEAN_ANOMALY":210.8519,"EPHEMERIS_TYPE":0,"CLASSIFICATION_TYPE":"U","NORAD_CAT_ID":42758,"ELEMENT_SET_NO":999,"REV_AT_EPOCH":48908,"BSTAR":0.00013568,"MEAN_MOTION_DOT":2.594e-5,"MEAN_MOTION_DDOT":0}]
